[{"OBJECT_NAME":"STARLINK-31640","OBJECT_ID":"2024-090U","EPOCH":"2026-03-09T07:46:26.896224","MEAN_MOTION":15.2757173,"ECCENTRICITY":0.00018596,"INCLINATION":42.9976,"RA_OF_ASC_NODE":185.5973,"ARG_OF_PERICENTER":191.7433,"MEAN_ANOMALY":168.3375,"EPHEMERIS_TYPE":0,"CLASSIFICATION_TYPE":"U","NORAD_CAT_ID":59748,"ELEMENT_SET_NO":999,"REV_AT_EPOCH":10338,"BSTAR":-2.9843135e-5,"MEAN_MOTION_DOT":-1.083e-5,"MEAN_MOTION_DDOT":0},{"OBJECT_NAME":"YAOGAN-43 01D","OBJECT_ID":"2024-148D","EPOCH":"2026-03-09T10:27:16.254720","MEAN_MOTION":15.28369377,"ECCENTRICITY":0.00025569,"INCLINATION":35.001,"RA_OF_ASC_NODE":61.7102,"ARG_OF_PERICENTER":326.2473,"MEAN_ANOMALY":33.808,"EPHEMERIS_TYPE":0,"CLASSIFICATION_TYPE":"U","NORAD_CAT_ID":60461,"ELEMENT_SET_NO":999,"REV_AT_EPOCH":8700,"BSTAR":0.00037765912,"MEAN_MOTION_DOT":0.00010676,"MEAN_MOTION_DDOT":0}]
